{
"type": "FeatureCollection",
"name": "candidate_locations",
"crs": { "type": "name", "properties": { "name": "urn:ogc:def:crs:OGC:1.3:CRS84" } },
"features": [
{ "type": "Feature", "properties": { "candidate_id": "C01", "candidate_name": "Bahcelievler Metro", "latitude": 41.0031, "longitude": 28.8628, "store_area_sqm": 597, "delivery_risk": 0.2555, "permitting_months": 6, "capacity_index": 1.189 }, "geometry": { "type": "Point", "coordinates": [ 28.8628, 41.0031 ] } },
{ "type": "Feature", "properties": { "candidate_id": "C02", "candidate_name": "Beylikduzu Marina", "latitude": 40.9814, "longitude": 28.6417, "store_area_sqm": 611, "delivery_risk": 0.2503, "permitting_months": 6, "capacity_index": 1.004 }, "geometry": { "type": "Point", "coordinates": [ 28.6417, 40.9814 ] } },
{ "type": "Feature", "properties": { "candidate_id": "C03", "candidate_name": "Avcilar University", "latitude": 40.9872, "longitude": 28.7235, "store_area_sqm": 669, "delivery_risk": 0.3645, "permitting_months": 10, "capacity_index": 1.168 }, "geometry": { "type": "Point", "coordinates": [ 28.7235, 40.9872 ] } },
{ "type": "Feature", "properties": { "candidate_id": "C04", "candidate_name": "Esenyurt Square", "latitude": 41.0349, "longitude": 28.6804, "store_area_sqm": 583, "delivery_risk": 0.3395, "permitting_months": 8, "capacity_index": 1.1916 }, "geometry": { "type": "Point", "coordinates": [ 28.6804, 41.0349 ] } },
{ "type": "Feature", "properties": { "candidate_id": "C05", "candidate_name": "Kagithane Axis", "latitude": 41.0858, "longitude": 28.9726, "store_area_sqm": 528, "delivery_risk": 0.2161, "permitting_months": 4, "capacity_index": 0.7818 }, "geometry": { "type": "Point", "coordinates": [ 28.9726, 41.0858 ] } },
{ "type": "Feature", "properties": { "candidate_id": "C06", "candidate_name": "Basaksehir Center", "latitude": 41.1068, "longitude": 28.8061, "store_area_sqm": 758, "delivery_risk": 0.2732, "permitting_months": 10, "capacity_index": 0.8233 }, "geometry": { "type": "Point", "coordinates": [ 28.8061, 41.1068 ] } },
{ "type": "Feature", "properties": { "candidate_id": "C07", "candidate_name": "Eyupsultan Hub", "latitude": 41.0757, "longitude": 28.9336, "store_area_sqm": 564, "delivery_risk": 0.1624, "permitting_months": 8, "capacity_index": 1.0277 }, "geometry": { "type": "Point", "coordinates": [ 28.9336, 41.0757 ] } },
{ "type": "Feature", "properties": { "candidate_id": "C08", "candidate_name": "Sariyer Corridor", "latitude": 41.1662, "longitude": 29.05, "store_area_sqm": 744, "delivery_risk": 0.223, "permitting_months": 10, "capacity_index": 1.0876 }, "geometry": { "type": "Point", "coordinates": [ 29.05, 41.1662 ] } },
{ "type": "Feature", "properties": { "candidate_id": "C09", "candidate_name": "Zeytinburnu Transit", "latitude": 40.9938, "longitude": 28.9057, "store_area_sqm": 627, "delivery_risk": 0.2155, "permitting_months": 6, "capacity_index": 1.1005 }, "geometry": { "type": "Point", "coordinates": [ 28.9057, 40.9938 ] } },
{ "type": "Feature", "properties": { "candidate_id": "C10", "candidate_name": "Bayrampasa Forum", "latitude": 41.0462, "longitude": 28.8965, "store_area_sqm": 611, "delivery_risk": 0.4114, "permitting_months": 7, "capacity_index": 1.1972 }, "geometry": { "type": "Point", "coordinates": [ 28.8965, 41.0462 ] } },
{ "type": "Feature", "properties": { "candidate_id": "C11", "candidate_name": "Atasehir Finance", "latitude": 40.9904, "longitude": 29.1275, "store_area_sqm": 623, "delivery_risk": 0.1514, "permitting_months": 5, "capacity_index": 0.9551 }, "geometry": { "type": "Point", "coordinates": [ 29.1275, 40.9904 ] } },
{ "type": "Feature", "properties": { "candidate_id": "C12", "candidate_name": "Umraniye Center", "latitude": 41.0236, "longitude": 29.1187, "store_area_sqm": 653, "delivery_risk": 0.3634, "permitting_months": 7, "capacity_index": 1.0156 }, "geometry": { "type": "Point", "coordinates": [ 29.1187, 41.0236 ] } },
{ "type": "Feature", "properties": { "candidate_id": "C13", "candidate_name": "Maltepe Coastal", "latitude": 40.9217, "longitude": 29.1433, "store_area_sqm": 585, "delivery_risk": 0.1277, "permitting_months": 5, "capacity_index": 0.8235 }, "geometry": { "type": "Point", "coordinates": [ 29.1433, 40.9217 ] } },
{ "type": "Feature", "properties": { "candidate_id": "C14", "candidate_name": "Kartal Junction", "latitude": 40.8972, "longitude": 29.1915, "store_area_sqm": 719, "delivery_risk": 0.3184, "permitting_months": 9, "capacity_index": 1.099 }, "geometry": { "type": "Point", "coordinates": [ 29.1915, 40.8972 ] } },
{ "type": "Feature", "properties": { "candidate_id": "C15", "candidate_name": "Pendik Marina", "latitude": 40.8758, "longitude": 29.2336, "store_area_sqm": 603, "delivery_risk": 0.2949, "permitting_months": 8, "capacity_index": 1.1197 }, "geometry": { "type": "Point", "coordinates": [ 29.2336, 40.8758 ] } },
{ "type": "Feature", "properties": { "candidate_id": "C16", "candidate_name": "Cekmekoy Center", "latitude": 41.0331, "longitude": 29.1784, "store_area_sqm": 723, "delivery_risk": 0.3012, "permitting_months": 6, "capacity_index": 0.8746 }, "geometry": { "type": "Point", "coordinates": [ 29.1784, 41.0331 ] } },
{ "type": "Feature", "properties": { "candidate_id": "C17", "candidate_name": "Sancaktepe Hub", "latitude": 41.0026, "longitude": 29.2317, "store_area_sqm": 623, "delivery_risk": 0.1071, "permitting_months": 9, "capacity_index": 1.034 }, "geometry": { "type": "Point", "coordinates": [ 29.2317, 41.0026 ] } },
{ "type": "Feature", "properties": { "candidate_id": "C18", "candidate_name": "Sultanbeyli Square", "latitude": 40.9684, "longitude": 29.2708, "store_area_sqm": 561, "delivery_risk": 0.4081, "permitting_months": 4, "capacity_index": 1.1722 }, "geometry": { "type": "Point", "coordinates": [ 29.2708, 40.9684 ] } },
{ "type": "Feature", "properties": { "candidate_id": "C19", "candidate_name": "Tuzla Technology", "latitude": 40.8289, "longitude": 29.3185, "store_area_sqm": 536, "delivery_risk": 0.2841, "permitting_months": 9, "capacity_index": 0.9591 }, "geometry": { "type": "Point", "coordinates": [ 29.3185, 40.8289 ] } },
{ "type": "Feature", "properties": { "candidate_id": "C20", "candidate_name": "Buyukcekmece Center", "latitude": 41.0201, "longitude": 28.585, "store_area_sqm": 634, "delivery_risk": 0.2777, "permitting_months": 9, "capacity_index": 0.7532 }, "geometry": { "type": "Point", "coordinates": [ 28.585, 41.0201 ] } },
{ "type": "Feature", "properties": { "candidate_id": "C21", "candidate_name": "Arnavutkoy Center", "latitude": 41.1864, "longitude": 28.738, "store_area_sqm": 536, "delivery_risk": 0.1819, "permitting_months": 4, "capacity_index": 0.9432 }, "geometry": { "type": "Point", "coordinates": [ 28.738, 41.1864 ] } },
{ "type": "Feature", "properties": { "candidate_id": "C22", "candidate_name": "Silivri Gateway", "latitude": 41.073, "longitude": 28.2478, "store_area_sqm": 679, "delivery_risk": 0.2376, "permitting_months": 5, "capacity_index": 0.9862 }, "geometry": { "type": "Point", "coordinates": [ 28.2478, 41.073 ] } },
{ "type": "Feature", "properties": { "candidate_id": "C23", "candidate_name": "Gokturk Center", "latitude": 41.1778, "longitude": 28.8895, "store_area_sqm": 620, "delivery_risk": 0.4032, "permitting_months": 7, "capacity_index": 0.956 }, "geometry": { "type": "Point", "coordinates": [ 28.8895, 41.1778 ] } },
{ "type": "Feature", "properties": { "candidate_id": "C24", "candidate_name": "Ikitelli Industry", "latitude": 41.079, "longitude": 28.7985, "store_area_sqm": 579, "delivery_risk": 0.1876, "permitting_months": 6, "capacity_index": 1.1525 }, "geometry": { "type": "Point", "coordinates": [ 28.7985, 41.079 ] } }
]
}
