{
"type": "FeatureCollection",
"name": "competitors",
"crs": { "type": "name", "properties": { "name": "urn:ogc:def:crs:OGC:1.3:CRS84" } },
"features": [
{ "type": "Feature", "properties": { "competitor_id": "R001", "competitor_name": "Competitor 001", "anchor_district": "Kadikoy", "latitude": 41.001946155763122, "longitude": 29.029517956215145, "area_sqm": 631 }, "geometry": { "type": "Point", "coordinates": [ 29.029517956215145, 41.001946155763122 ] } },
{ "type": "Feature", "properties": { "competitor_id": "R002", "competitor_name": "Competitor 002", "anchor_district": "Maltepe", "latitude": 40.95959354037803, "longitude": 29.143576710334099, "area_sqm": 523 }, "geometry": { "type": "Point", "coordinates": [ 29.143576710334099, 40.95959354037803 ] } },
{ "type": "Feature", "properties": { "competitor_id": "R003", "competitor_name": "Competitor 003", "anchor_district": "Umraniye", "latitude": 40.992744805305541, "longitude": 29.1065076369092, "area_sqm": 872 }, "geometry": { "type": "Point", "coordinates": [ 29.1065076369092, 40.992744805305541 ] } },
{ "type": "Feature", "properties": { "competitor_id": "R004", "competitor_name": "Competitor 004", "anchor_district": "Uskudar", "latitude": 41.047604221212595, "longitude": 29.019235997367936, "area_sqm": 861 }, "geometry": { "type": "Point", "coordinates": [ 29.019235997367936, 41.047604221212595 ] } },
{ "type": "Feature", "properties": { "competitor_id": "R005", "competitor_name": "Competitor 005", "anchor_district": "Uskudar", "latitude": 41.021140852642333, "longitude": 29.053326063487333, "area_sqm": 678 }, "geometry": { "type": "Point", "coordinates": [ 29.053326063487333, 41.021140852642333 ] } },
{ "type": "Feature", "properties": { "competitor_id": "R006", "competitor_name": "Competitor 006", "anchor_district": "Esenyurt", "latitude": 41.05071798922944, "longitude": 28.697830124563712, "area_sqm": 682 }, "geometry": { "type": "Point", "coordinates": [ 28.697830124563712, 41.05071798922944 ] } },
{ "type": "Feature", "properties": { "competitor_id": "R007", "competitor_name": "Competitor 007", "anchor_district": "Basaksehir", "latitude": 41.094650213808713, "longitude": 28.815714535268008, "area_sqm": 600 }, "geometry": { "type": "Point", "coordinates": [ 28.815714535268008, 41.094650213808713 ] } },
{ "type": "Feature", "properties": { "competitor_id": "R008", "competitor_name": "Competitor 008", "anchor_district": "Atasehir", "latitude": 40.967751293910091, "longitude": 29.108493568320608, "area_sqm": 476 }, "geometry": { "type": "Point", "coordinates": [ 29.108493568320608, 40.967751293910091 ] } },
{ "type": "Feature", "properties": { "competitor_id": "R009", "competitor_name": "Competitor 009", "anchor_district": "Esenyurt", "latitude": 41.047330587013164, "longitude": 28.688678104631688, "area_sqm": 427 }, "geometry": { "type": "Point", "coordinates": [ 28.688678104631688, 41.047330587013164 ] } },
{ "type": "Feature", "properties": { "competitor_id": "R010", "competitor_name": "Competitor 010", "anchor_district": "Uskudar", "latitude": 41.02285409606889, "longitude": 29.055173254185142, "area_sqm": 572 }, "geometry": { "type": "Point", "coordinates": [ 29.055173254185142, 41.02285409606889 ] } },
{ "type": "Feature", "properties": { "competitor_id": "R011", "competitor_name": "Competitor 011", "anchor_district": "Basaksehir", "latitude": 41.078047971913648, "longitude": 28.817809914076097, "area_sqm": 1001 }, "geometry": { "type": "Point", "coordinates": [ 28.817809914076097, 41.078047971913648 ] } },
{ "type": "Feature", "properties": { "competitor_id": "R012", "competitor_name": "Competitor 012", "anchor_district": "Bahcelievler", "latitude": 41.00442804094952, "longitude": 28.881818485065978, "area_sqm": 579 }, "geometry": { "type": "Point", "coordinates": [ 28.881818485065978, 41.00442804094952 ] } },
{ "type": "Feature", "properties": { "competitor_id": "R013", "competitor_name": "Competitor 013", "anchor_district": "Esenyurt", "latitude": 41.050146088334721, "longitude": 28.713255006983001, "area_sqm": 660 }, "geometry": { "type": "Point", "coordinates": [ 28.713255006983001, 41.050146088334721 ] } },
{ "type": "Feature", "properties": { "competitor_id": "R014", "competitor_name": "Competitor 014", "anchor_district": "Kadikoy", "latitude": 41.011355700684533, "longitude": 29.089039418594595, "area_sqm": 679 }, "geometry": { "type": "Point", "coordinates": [ 29.089039418594595, 41.011355700684533 ] } },
{ "type": "Feature", "properties": { "competitor_id": "R015", "competitor_name": "Competitor 015", "anchor_district": "Levent", "latitude": 41.081711316888018, "longitude": 29.016614777886041, "area_sqm": 398 }, "geometry": { "type": "Point", "coordinates": [ 29.016614777886041, 41.081711316888018 ] } },
{ "type": "Feature", "properties": { "competitor_id": "R016", "competitor_name": "Competitor 016", "anchor_district": "Levent", "latitude": 41.083583344438978, "longitude": 29.082050894238243, "area_sqm": 712 }, "geometry": { "type": "Point", "coordinates": [ 29.082050894238243, 41.083583344438978 ] } },
{ "type": "Feature", "properties": { "competitor_id": "R017", "competitor_name": "Competitor 017", "anchor_district": "Beylikduzu", "latitude": 41.020024339988325, "longitude": 28.629674019942371, "area_sqm": 475 }, "geometry": { "type": "Point", "coordinates": [ 28.629674019942371, 41.020024339988325 ] } },
{ "type": "Feature", "properties": { "competitor_id": "R018", "competitor_name": "Competitor 018", "anchor_district": "Kadikoy", "latitude": 40.970272032284676, "longitude": 29.045838780423484, "area_sqm": 394 }, "geometry": { "type": "Point", "coordinates": [ 29.045838780423484, 40.970272032284676 ] } },
{ "type": "Feature", "properties": { "competitor_id": "R019", "competitor_name": "Competitor 019", "anchor_district": "Uskudar", "latitude": 40.997822462646262, "longitude": 29.02252644407471, "area_sqm": 640 }, "geometry": { "type": "Point", "coordinates": [ 29.02252644407471, 40.997822462646262 ] } },
{ "type": "Feature", "properties": { "competitor_id": "R020", "competitor_name": "Competitor 020", "anchor_district": "Kadikoy", "latitude": 40.973084399364836, "longitude": 29.004360961436809, "area_sqm": 627 }, "geometry": { "type": "Point", "coordinates": [ 29.004360961436809, 40.973084399364836 ] } },
{ "type": "Feature", "properties": { "competitor_id": "R021", "competitor_name": "Competitor 021", "anchor_district": "Besiktas", "latitude": 41.055885482018596, "longitude": 29.012497797116886, "area_sqm": 609 }, "geometry": { "type": "Point", "coordinates": [ 29.012497797116886, 41.055885482018596 ] } },
{ "type": "Feature", "properties": { "competitor_id": "R022", "competitor_name": "Competitor 022", "anchor_district": "Besiktas", "latitude": 41.057112363683679, "longitude": 28.996311913343423, "area_sqm": 808 }, "geometry": { "type": "Point", "coordinates": [ 28.996311913343423, 41.057112363683679 ] } },
{ "type": "Feature", "properties": { "competitor_id": "R023", "competitor_name": "Competitor 023", "anchor_district": "Besiktas", "latitude": 41.04623463394519, "longitude": 29.022279128191972, "area_sqm": 576 }, "geometry": { "type": "Point", "coordinates": [ 29.022279128191972, 41.04623463394519 ] } },
{ "type": "Feature", "properties": { "competitor_id": "R024", "competitor_name": "Competitor 024", "anchor_district": "Sisli", "latitude": 41.077409804440485, "longitude": 28.974433064733557, "area_sqm": 1000 }, "geometry": { "type": "Point", "coordinates": [ 28.974433064733557, 41.077409804440485 ] } },
{ "type": "Feature", "properties": { "competitor_id": "R025", "competitor_name": "Competitor 025", "anchor_district": "Levent", "latitude": 41.066896876206677, "longitude": 29.017978488580543, "area_sqm": 506 }, "geometry": { "type": "Point", "coordinates": [ 29.017978488580543, 41.066896876206677 ] } },
{ "type": "Feature", "properties": { "competitor_id": "R026", "competitor_name": "Competitor 026", "anchor_district": "Esenyurt", "latitude": 41.048985538289848, "longitude": 28.694228678427372, "area_sqm": 1054 }, "geometry": { "type": "Point", "coordinates": [ 28.694228678427372, 41.048985538289848 ] } },
{ "type": "Feature", "properties": { "competitor_id": "R027", "competitor_name": "Competitor 027", "anchor_district": "Uskudar", "latitude": 41.022634053290076, "longitude": 29.020964126823888, "area_sqm": 941 }, "geometry": { "type": "Point", "coordinates": [ 29.020964126823888, 41.022634053290076 ] } },
{ "type": "Feature", "properties": { "competitor_id": "R028", "competitor_name": "Competitor 028", "anchor_district": "Atasehir", "latitude": 41.009363914997401, "longitude": 29.096294034124124, "area_sqm": 684 }, "geometry": { "type": "Point", "coordinates": [ 29.096294034124124, 41.009363914997401 ] } },
{ "type": "Feature", "properties": { "competitor_id": "R029", "competitor_name": "Competitor 029", "anchor_district": "Kadikoy", "latitude": 40.994967692440184, "longitude": 28.988159385658804, "area_sqm": 1089 }, "geometry": { "type": "Point", "coordinates": [ 28.988159385658804, 40.994967692440184 ] } },
{ "type": "Feature", "properties": { "competitor_id": "R030", "competitor_name": "Competitor 030", "anchor_district": "Sisli", "latitude": 41.061886005743318, "longitude": 28.996472819431649, "area_sqm": 506 }, "geometry": { "type": "Point", "coordinates": [ 28.996472819431649, 41.061886005743318 ] } },
{ "type": "Feature", "properties": { "competitor_id": "R031", "competitor_name": "Competitor 031", "anchor_district": "Esenyurt", "latitude": 41.036315235338975, "longitude": 28.677162934685391, "area_sqm": 475 }, "geometry": { "type": "Point", "coordinates": [ 28.677162934685391, 41.036315235338975 ] } },
{ "type": "Feature", "properties": { "competitor_id": "R032", "competitor_name": "Competitor 032", "anchor_district": "Maltepe", "latitude": 40.933314135801929, "longitude": 29.178591829209623, "area_sqm": 774 }, "geometry": { "type": "Point", "coordinates": [ 29.178591829209623, 40.933314135801929 ] } },
{ "type": "Feature", "properties": { "competitor_id": "R033", "competitor_name": "Competitor 033", "anchor_district": "Sancaktepe", "latitude": 41.015026083557103, "longitude": 29.212355145851337, "area_sqm": 590 }, "geometry": { "type": "Point", "coordinates": [ 29.212355145851337, 41.015026083557103 ] } },
{ "type": "Feature", "properties": { "competitor_id": "R034", "competitor_name": "Competitor 034", "anchor_district": "Umraniye", "latitude": 40.999322681793871, "longitude": 29.126152118885987, "area_sqm": 475 }, "geometry": { "type": "Point", "coordinates": [ 29.126152118885987, 40.999322681793871 ] } },
{ "type": "Feature", "properties": { "competitor_id": "R035", "competitor_name": "Competitor 035", "anchor_district": "Atasehir", "latitude": 40.97358902729038, "longitude": 29.099840767910475, "area_sqm": 840 }, "geometry": { "type": "Point", "coordinates": [ 29.099840767910475, 40.97358902729038 ] } },
{ "type": "Feature", "properties": { "competitor_id": "R036", "competitor_name": "Competitor 036", "anchor_district": "Umraniye", "latitude": 41.016908408774334, "longitude": 29.107735007466225, "area_sqm": 801 }, "geometry": { "type": "Point", "coordinates": [ 29.107735007466225, 41.016908408774334 ] } },
{ "type": "Feature", "properties": { "competitor_id": "R037", "competitor_name": "Competitor 037", "anchor_district": "Beyoglu", "latitude": 41.035691191684982, "longitude": 29.002603512747267, "area_sqm": 622 }, "geometry": { "type": "Point", "coordinates": [ 29.002603512747267, 41.035691191684982 ] } },
{ "type": "Feature", "properties": { "competitor_id": "R038", "competitor_name": "Competitor 038", "anchor_district": "Beylikduzu", "latitude": 40.999809223821543, "longitude": 28.643102640459574, "area_sqm": 488 }, "geometry": { "type": "Point", "coordinates": [ 28.643102640459574, 40.999809223821543 ] } },
{ "type": "Feature", "properties": { "competitor_id": "R039", "competitor_name": "Competitor 039", "anchor_district": "Maltepe", "latitude": 40.929200972599624, "longitude": 29.139765035585057, "area_sqm": 680 }, "geometry": { "type": "Point", "coordinates": [ 29.139765035585057, 40.929200972599624 ] } },
{ "type": "Feature", "properties": { "competitor_id": "R040", "competitor_name": "Competitor 040", "anchor_district": "Beylikduzu", "latitude": 41.01901986911323, "longitude": 28.666771049114715, "area_sqm": 353 }, "geometry": { "type": "Point", "coordinates": [ 28.666771049114715, 41.01901986911323 ] } },
{ "type": "Feature", "properties": { "competitor_id": "R041", "competitor_name": "Competitor 041", "anchor_district": "Atasehir", "latitude": 40.980475289836136, "longitude": 29.116486409511527, "area_sqm": 662 }, "geometry": { "type": "Point", "coordinates": [ 29.116486409511527, 40.980475289836136 ] } },
{ "type": "Feature", "properties": { "competitor_id": "R042", "competitor_name": "Competitor 042", "anchor_district": "Kartal", "latitude": 40.881694590125328, "longitude": 29.186911277765869, "area_sqm": 434 }, "geometry": { "type": "Point", "coordinates": [ 29.186911277765869, 40.881694590125328 ] } },
{ "type": "Feature", "properties": { "competitor_id": "R043", "competitor_name": "Competitor 043", "anchor_district": "Beyoglu", "latitude": 41.012874223796238, "longitude": 28.985503105743117, "area_sqm": 937 }, "geometry": { "type": "Point", "coordinates": [ 28.985503105743117, 41.012874223796238 ] } },
{ "type": "Feature", "properties": { "competitor_id": "R044", "competitor_name": "Competitor 044", "anchor_district": "Atasehir", "latitude": 40.999547597808032, "longitude": 29.135174909329141, "area_sqm": 528 }, "geometry": { "type": "Point", "coordinates": [ 29.135174909329141, 40.999547597808032 ] } },
{ "type": "Feature", "properties": { "competitor_id": "R045", "competitor_name": "Competitor 045", "anchor_district": "Uskudar", "latitude": 41.016909471707969, "longitude": 29.02433887584834, "area_sqm": 674 }, "geometry": { "type": "Point", "coordinates": [ 29.02433887584834, 41.016909471707969 ] } },
{ "type": "Feature", "properties": { "competitor_id": "R046", "competitor_name": "Competitor 046", "anchor_district": "Uskudar", "latitude": 41.028251845999144, "longitude": 29.037266342141965, "area_sqm": 791 }, "geometry": { "type": "Point", "coordinates": [ 29.037266342141965, 41.028251845999144 ] } },
{ "type": "Feature", "properties": { "competitor_id": "R047", "competitor_name": "Competitor 047", "anchor_district": "Besiktas", "latitude": 41.040981468910125, "longitude": 28.983233610119733, "area_sqm": 876 }, "geometry": { "type": "Point", "coordinates": [ 28.983233610119733, 41.040981468910125 ] } },
{ "type": "Feature", "properties": { "competitor_id": "R048", "competitor_name": "Competitor 048", "anchor_district": "Uskudar", "latitude": 41.017831721225399, "longitude": 28.996037315183539, "area_sqm": 738 }, "geometry": { "type": "Point", "coordinates": [ 28.996037315183539, 41.017831721225399 ] } },
{ "type": "Feature", "properties": { "competitor_id": "R049", "competitor_name": "Competitor 049", "anchor_district": "Kartal", "latitude": 40.883413001220426, "longitude": 29.210512004180387, "area_sqm": 468 }, "geometry": { "type": "Point", "coordinates": [ 29.210512004180387, 40.883413001220426 ] } },
{ "type": "Feature", "properties": { "competitor_id": "R050", "competitor_name": "Competitor 050", "anchor_district": "Sisli", "latitude": 41.048995103858438, "longitude": 28.958545056372223, "area_sqm": 557 }, "geometry": { "type": "Point", "coordinates": [ 28.958545056372223, 41.048995103858438 ] } },
{ "type": "Feature", "properties": { "competitor_id": "R051", "competitor_name": "Competitor 051", "anchor_district": "Kagithane", "latitude": 41.070876718724691, "longitude": 28.952188752518463, "area_sqm": 698 }, "geometry": { "type": "Point", "coordinates": [ 28.952188752518463, 41.070876718724691 ] } },
{ "type": "Feature", "properties": { "competitor_id": "R052", "competitor_name": "Competitor 052", "anchor_district": "Kadikoy", "latitude": 40.989690470644952, "longitude": 29.044821588024693, "area_sqm": 838 }, "geometry": { "type": "Point", "coordinates": [ 29.044821588024693, 40.989690470644952 ] } },
{ "type": "Feature", "properties": { "competitor_id": "R053", "competitor_name": "Competitor 053", "anchor_district": "Beylikduzu", "latitude": 40.985213551462657, "longitude": 28.680072086486508, "area_sqm": 1057 }, "geometry": { "type": "Point", "coordinates": [ 28.680072086486508, 40.985213551462657 ] } },
{ "type": "Feature", "properties": { "competitor_id": "R054", "competitor_name": "Competitor 054", "anchor_district": "Beylikduzu", "latitude": 40.995568983613033, "longitude": 28.655700383613524, "area_sqm": 629 }, "geometry": { "type": "Point", "coordinates": [ 28.655700383613524, 40.995568983613033 ] } },
{ "type": "Feature", "properties": { "competitor_id": "R055", "competitor_name": "Competitor 055", "anchor_district": "Kagithane", "latitude": 41.075964436588286, "longitude": 28.976321364427903, "area_sqm": 899 }, "geometry": { "type": "Point", "coordinates": [ 28.976321364427903, 41.075964436588286 ] } },
{ "type": "Feature", "properties": { "competitor_id": "R056", "competitor_name": "Competitor 056", "anchor_district": "Maltepe", "latitude": 40.941618532076888, "longitude": 29.152604018477241, "area_sqm": 963 }, "geometry": { "type": "Point", "coordinates": [ 29.152604018477241, 40.941618532076888 ] } },
{ "type": "Feature", "properties": { "competitor_id": "R057", "competitor_name": "Competitor 057", "anchor_district": "Esenyurt", "latitude": 41.04783253602352, "longitude": 28.701026920984305, "area_sqm": 557 }, "geometry": { "type": "Point", "coordinates": [ 28.701026920984305, 41.04783253602352 ] } },
{ "type": "Feature", "properties": { "competitor_id": "R058", "competitor_name": "Competitor 058", "anchor_district": "Uskudar", "latitude": 41.005856712482604, "longitude": 28.971921009125442, "area_sqm": 966 }, "geometry": { "type": "Point", "coordinates": [ 28.971921009125442, 41.005856712482604 ] } },
{ "type": "Feature", "properties": { "competitor_id": "R059", "competitor_name": "Competitor 059", "anchor_district": "Esenyurt", "latitude": 41.019555448791969, "longitude": 28.701761538763247, "area_sqm": 711 }, "geometry": { "type": "Point", "coordinates": [ 28.701761538763247, 41.019555448791969 ] } },
{ "type": "Feature", "properties": { "competitor_id": "R060", "competitor_name": "Competitor 060", "anchor_district": "Uskudar", "latitude": 41.000033626433556, "longitude": 29.035616774643199, "area_sqm": 501 }, "geometry": { "type": "Point", "coordinates": [ 29.035616774643199, 41.000033626433556 ] } },
{ "type": "Feature", "properties": { "competitor_id": "R061", "competitor_name": "Competitor 061", "anchor_district": "Beyoglu", "latitude": 41.017387999701953, "longitude": 28.987932184719909, "area_sqm": 494 }, "geometry": { "type": "Point", "coordinates": [ 28.987932184719909, 41.017387999701953 ] } },
{ "type": "Feature", "properties": { "competitor_id": "R062", "competitor_name": "Competitor 062", "anchor_district": "Kartal", "latitude": 40.88216970642781, "longitude": 29.191901370818851, "area_sqm": 755 }, "geometry": { "type": "Point", "coordinates": [ 29.191901370818851, 40.88216970642781 ] } },
{ "type": "Feature", "properties": { "competitor_id": "R063", "competitor_name": "Competitor 063", "anchor_district": "Kartal", "latitude": 40.87125300771109, "longitude": 29.182283518834577, "area_sqm": 840 }, "geometry": { "type": "Point", "coordinates": [ 29.182283518834577, 40.87125300771109 ] } },
{ "type": "Feature", "properties": { "competitor_id": "R064", "competitor_name": "Competitor 064", "anchor_district": "Bakirkoy", "latitude": 40.974264501873222, "longitude": 28.878207233658109, "area_sqm": 909 }, "geometry": { "type": "Point", "coordinates": [ 28.878207233658109, 40.974264501873222 ] } },
{ "type": "Feature", "properties": { "competitor_id": "R065", "competitor_name": "Competitor 065", "anchor_district": "Sancaktepe", "latitude": 41.0312895339775, "longitude": 29.229975488513166, "area_sqm": 512 }, "geometry": { "type": "Point", "coordinates": [ 29.229975488513166, 41.0312895339775 ] } },
{ "type": "Feature", "properties": { "competitor_id": "R066", "competitor_name": "Competitor 066", "anchor_district": "Sancaktepe", "latitude": 41.015565020973277, "longitude": 29.246025925641081, "area_sqm": 566 }, "geometry": { "type": "Point", "coordinates": [ 29.246025925641081, 41.015565020973277 ] } },
{ "type": "Feature", "properties": { "competitor_id": "R067", "competitor_name": "Competitor 067", "anchor_district": "Maltepe", "latitude": 40.944029873443355, "longitude": 29.176041722804808, "area_sqm": 441 }, "geometry": { "type": "Point", "coordinates": [ 29.176041722804808, 40.944029873443355 ] } },
{ "type": "Feature", "properties": { "competitor_id": "R068", "competitor_name": "Competitor 068", "anchor_district": "Maltepe", "latitude": 40.958170010666564, "longitude": 29.14590662856579, "area_sqm": 602 }, "geometry": { "type": "Point", "coordinates": [ 29.14590662856579, 40.958170010666564 ] } },
{ "type": "Feature", "properties": { "competitor_id": "R069", "competitor_name": "Competitor 069", "anchor_district": "Uskudar", "latitude": 41.020493484367051, "longitude": 29.035602484895321, "area_sqm": 975 }, "geometry": { "type": "Point", "coordinates": [ 29.035602484895321, 41.020493484367051 ] } },
{ "type": "Feature", "properties": { "competitor_id": "R070", "competitor_name": "Competitor 070", "anchor_district": "Levent", "latitude": 41.103768824217283, "longitude": 29.005581369732269, "area_sqm": 836 }, "geometry": { "type": "Point", "coordinates": [ 29.005581369732269, 41.103768824217283 ] } },
{ "type": "Feature", "properties": { "competitor_id": "R071", "competitor_name": "Competitor 071", "anchor_district": "Umraniye", "latitude": 40.967109495587167, "longitude": 29.156041916583355, "area_sqm": 417 }, "geometry": { "type": "Point", "coordinates": [ 29.156041916583355, 40.967109495587167 ] } },
{ "type": "Feature", "properties": { "competitor_id": "R072", "competitor_name": "Competitor 072", "anchor_district": "Bahcelievler", "latitude": 40.948444974772237, "longitude": 28.857639408527671, "area_sqm": 955 }, "geometry": { "type": "Point", "coordinates": [ 28.857639408527671, 40.948444974772237 ] } },
{ "type": "Feature", "properties": { "competitor_id": "R073", "competitor_name": "Competitor 073", "anchor_district": "Esenyurt", "latitude": 41.019286116368342, "longitude": 28.706504777165961, "area_sqm": 362 }, "geometry": { "type": "Point", "coordinates": [ 28.706504777165961, 41.019286116368342 ] } },
{ "type": "Feature", "properties": { "competitor_id": "R074", "competitor_name": "Competitor 074", "anchor_district": "Beyoglu", "latitude": 40.984250245396822, "longitude": 28.971780202297836, "area_sqm": 456 }, "geometry": { "type": "Point", "coordinates": [ 28.971780202297836, 40.984250245396822 ] } },
{ "type": "Feature", "properties": { "competitor_id": "R075", "competitor_name": "Competitor 075", "anchor_district": "Besiktas", "latitude": 41.039814531121152, "longitude": 29.018374113170324, "area_sqm": 655 }, "geometry": { "type": "Point", "coordinates": [ 29.018374113170324, 41.039814531121152 ] } },
{ "type": "Feature", "properties": { "competitor_id": "R076", "competitor_name": "Competitor 076", "anchor_district": "Besiktas", "latitude": 41.026827945201269, "longitude": 29.015626679359674, "area_sqm": 575 }, "geometry": { "type": "Point", "coordinates": [ 29.015626679359674, 41.026827945201269 ] } },
{ "type": "Feature", "properties": { "competitor_id": "R077", "competitor_name": "Competitor 077", "anchor_district": "Kadikoy", "latitude": 41.00196176980279, "longitude": 29.023106930161148, "area_sqm": 880 }, "geometry": { "type": "Point", "coordinates": [ 29.023106930161148, 41.00196176980279 ] } },
{ "type": "Feature", "properties": { "competitor_id": "R078", "competitor_name": "Competitor 078", "anchor_district": "Kartal", "latitude": 40.884232427333757, "longitude": 29.162437940531984, "area_sqm": 699 }, "geometry": { "type": "Point", "coordinates": [ 29.162437940531984, 40.884232427333757 ] } },
{ "type": "Feature", "properties": { "competitor_id": "R079", "competitor_name": "Competitor 079", "anchor_district": "Pendik", "latitude": 40.845611210057804, "longitude": 29.275249206811512, "area_sqm": 852 }, "geometry": { "type": "Point", "coordinates": [ 29.275249206811512, 40.845611210057804 ] } },
{ "type": "Feature", "properties": { "competitor_id": "R080", "competitor_name": "Competitor 080", "anchor_district": "Sancaktepe", "latitude": 41.018984705092848, "longitude": 29.275787674164768, "area_sqm": 490 }, "geometry": { "type": "Point", "coordinates": [ 29.275787674164768, 41.018984705092848 ] } },
{ "type": "Feature", "properties": { "competitor_id": "R081", "competitor_name": "Competitor 081", "anchor_district": "Basaksehir", "latitude": 41.077524548769908, "longitude": 28.795318197631378, "area_sqm": 595 }, "geometry": { "type": "Point", "coordinates": [ 28.795318197631378, 41.077524548769908 ] } },
{ "type": "Feature", "properties": { "competitor_id": "R082", "competitor_name": "Competitor 082", "anchor_district": "Esenyurt", "latitude": 41.040734490200315, "longitude": 28.709447328964327, "area_sqm": 816 }, "geometry": { "type": "Point", "coordinates": [ 28.709447328964327, 41.040734490200315 ] } },
{ "type": "Feature", "properties": { "competitor_id": "R083", "competitor_name": "Competitor 083", "anchor_district": "Sisli", "latitude": 41.046062119163651, "longitude": 28.949644684318891, "area_sqm": 826 }, "geometry": { "type": "Point", "coordinates": [ 28.949644684318891, 41.046062119163651 ] } },
{ "type": "Feature", "properties": { "competitor_id": "R084", "competitor_name": "Competitor 084", "anchor_district": "Uskudar", "latitude": 41.038514433365187, "longitude": 29.014046459240618, "area_sqm": 564 }, "geometry": { "type": "Point", "coordinates": [ 29.014046459240618, 41.038514433365187 ] } },
{ "type": "Feature", "properties": { "competitor_id": "R085", "competitor_name": "Competitor 085", "anchor_district": "Levent", "latitude": 41.055733042947217, "longitude": 28.988469418428146, "area_sqm": 406 }, "geometry": { "type": "Point", "coordinates": [ 28.988469418428146, 41.055733042947217 ] } },
{ "type": "Feature", "properties": { "competitor_id": "R086", "competitor_name": "Competitor 086", "anchor_district": "Besiktas", "latitude": 41.058312943381068, "longitude": 29.023619198274826, "area_sqm": 1092 }, "geometry": { "type": "Point", "coordinates": [ 29.023619198274826, 41.058312943381068 ] } },
{ "type": "Feature", "properties": { "competitor_id": "R087", "competitor_name": "Competitor 087", "anchor_district": "Bakirkoy", "latitude": 40.967929811894237, "longitude": 28.806584858165522, "area_sqm": 619 }, "geometry": { "type": "Point", "coordinates": [ 28.806584858165522, 40.967929811894237 ] } },
{ "type": "Feature", "properties": { "competitor_id": "R088", "competitor_name": "Competitor 088", "anchor_district": "Beylikduzu", "latitude": 41.011512991282153, "longitude": 28.642945458532527, "area_sqm": 677 }, "geometry": { "type": "Point", "coordinates": [ 28.642945458532527, 41.011512991282153 ] } },
{ "type": "Feature", "properties": { "competitor_id": "R089", "competitor_name": "Competitor 089", "anchor_district": "Besiktas", "latitude": 41.032592909725182, "longitude": 29.00893893832631, "area_sqm": 911 }, "geometry": { "type": "Point", "coordinates": [ 29.00893893832631, 41.032592909725182 ] } },
{ "type": "Feature", "properties": { "competitor_id": "R090", "competitor_name": "Competitor 090", "anchor_district": "Basaksehir", "latitude": 41.082484318748122, "longitude": 28.799773760383935, "area_sqm": 393 }, "geometry": { "type": "Point", "coordinates": [ 28.799773760383935, 41.082484318748122 ] } },
{ "type": "Feature", "properties": { "competitor_id": "R091", "competitor_name": "Competitor 091", "anchor_district": "Atasehir", "latitude": 40.965980527637818, "longitude": 29.112177843916498, "area_sqm": 366 }, "geometry": { "type": "Point", "coordinates": [ 29.112177843916498, 40.965980527637818 ] } },
{ "type": "Feature", "properties": { "competitor_id": "R092", "competitor_name": "Competitor 092", "anchor_district": "Sancaktepe", "latitude": 40.994900329381991, "longitude": 29.209372671305474, "area_sqm": 684 }, "geometry": { "type": "Point", "coordinates": [ 29.209372671305474, 40.994900329381991 ] } },
{ "type": "Feature", "properties": { "competitor_id": "R093", "competitor_name": "Competitor 093", "anchor_district": "Esenyurt", "latitude": 41.03107787291745, "longitude": 28.704879564870716, "area_sqm": 463 }, "geometry": { "type": "Point", "coordinates": [ 28.704879564870716, 41.03107787291745 ] } },
{ "type": "Feature", "properties": { "competitor_id": "R094", "competitor_name": "Competitor 094", "anchor_district": "Sancaktepe", "latitude": 41.009649079246145, "longitude": 29.256982309759582, "area_sqm": 766 }, "geometry": { "type": "Point", "coordinates": [ 29.256982309759582, 41.009649079246145 ] } },
{ "type": "Feature", "properties": { "competitor_id": "R095", "competitor_name": "Competitor 095", "anchor_district": "Besiktas", "latitude": 41.038851369634727, "longitude": 29.007329662803883, "area_sqm": 1079 }, "geometry": { "type": "Point", "coordinates": [ 29.007329662803883, 41.038851369634727 ] } },
{ "type": "Feature", "properties": { "competitor_id": "R096", "competitor_name": "Competitor 096", "anchor_district": "Beylikduzu", "latitude": 40.977742710705691, "longitude": 28.637047496406048, "area_sqm": 675 }, "geometry": { "type": "Point", "coordinates": [ 28.637047496406048, 40.977742710705691 ] } }
]
}
