{
"type": "FeatureCollection",
"name": "existing_stores",
"crs": { "type": "name", "properties": { "name": "urn:ogc:def:crs:OGC:1.3:CRS84" } },
"features": [
{ "type": "Feature", "properties": { "store_id": "S01", "store_name": "Besiktas", "latitude": 41.0433, "longitude": 29.0059, "store_area_sqm": 620, "opened_year": 2017, "annual_sales_try_m": 116.479, "ebit_margin": 0.084 }, "geometry": { "type": "Point", "coordinates": [ 29.0059, 41.0433 ] } },
{ "type": "Feature", "properties": { "store_id": "S02", "store_name": "Sisli", "latitude": 41.061, "longitude": 28.987, "store_area_sqm": 650, "opened_year": 2015, "annual_sales_try_m": 130.949, "ebit_margin": 0.1149 }, "geometry": { "type": "Point", "coordinates": [ 28.987, 41.061 ] } },
{ "type": "Feature", "properties": { "store_id": "S03", "store_name": "Levent", "latitude": 41.0795, "longitude": 29.0125, "store_area_sqm": 720, "opened_year": 2021, "annual_sales_try_m": 135.664, "ebit_margin": 0.1304 }, "geometry": { "type": "Point", "coordinates": [ 29.0125, 41.0795 ] } },
{ "type": "Feature", "properties": { "store_id": "S04", "store_name": "Taksim", "latitude": 41.037, "longitude": 28.985, "store_area_sqm": 540, "opened_year": 2022, "annual_sales_try_m": 124.754, "ebit_margin": 0.1407 }, "geometry": { "type": "Point", "coordinates": [ 28.985, 41.037 ] } },
{ "type": "Feature", "properties": { "store_id": "S05", "store_name": "Bakirkoy", "latitude": 40.9815, "longitude": 28.8725, "store_area_sqm": 680, "opened_year": 2015, "annual_sales_try_m": 131.108, "ebit_margin": 0.1428 }, "geometry": { "type": "Point", "coordinates": [ 28.8725, 40.9815 ] } },
{ "type": "Feature", "properties": { "store_id": "S06", "store_name": "Kadikoy", "latitude": 40.9907, "longitude": 29.0277, "store_area_sqm": 700, "opened_year": 2012, "annual_sales_try_m": 124.25, "ebit_margin": 0.1144 }, "geometry": { "type": "Point", "coordinates": [ 29.0277, 40.9907 ] } },
{ "type": "Feature", "properties": { "store_id": "S07", "store_name": "Uskudar", "latitude": 41.0262, "longitude": 29.016, "store_area_sqm": 610, "opened_year": 2020, "annual_sales_try_m": 122.091, "ebit_margin": 0.1245 }, "geometry": { "type": "Point", "coordinates": [ 29.016, 41.0262 ] } },
{ "type": "Feature", "properties": { "store_id": "S08", "store_name": "Atasehir", "latitude": 40.992, "longitude": 29.1245, "store_area_sqm": 760, "opened_year": 2017, "annual_sales_try_m": 108.422, "ebit_margin": 0.1226 }, "geometry": { "type": "Point", "coordinates": [ 29.1245, 40.992 ] } },
{ "type": "Feature", "properties": { "store_id": "S09", "store_name": "Maltepe", "latitude": 40.9363, "longitude": 29.1545, "store_area_sqm": 690, "opened_year": 2016, "annual_sales_try_m": 119.979, "ebit_margin": 0.1053 }, "geometry": { "type": "Point", "coordinates": [ 29.1545, 40.9363 ] } },
{ "type": "Feature", "properties": { "store_id": "S10", "store_name": "Umraniye", "latitude": 41.0168, "longitude": 29.124, "store_area_sqm": 710, "opened_year": 2017, "annual_sales_try_m": 114.97, "ebit_margin": 0.0911 }, "geometry": { "type": "Point", "coordinates": [ 29.124, 41.0168 ] } }
]
}
