{
"type": "FeatureCollection",
"name": "istanbul_analytical_footprint",
"crs": { "type": "name", "properties": { "name": "urn:ogc:def:crs:OGC:1.3:CRS84" } },
"features": [
{ "type": "Feature", "properties": { "area_id": "IST_METRO_SYNTHETIC", "boundary_type": "analytical_footprint" }, "geometry": { "type": "MultiPolygon", "coordinates": [ [ [ [ 29.12, 41.2 ], [ 29.35, 41.3 ], [ 29.54, 41.09 ], [ 29.48, 40.79 ], [ 29.105, 40.79 ], [ 29.12, 41.2 ] ] ], [ [ [ 28.22, 41.2 ], [ 28.552538461538461, 41.163051282051285 ], [ 28.56, 41.27 ], [ 28.83, 41.38 ], [ 29.075, 41.31 ], [ 29.075, 40.94 ], [ 28.98, 40.84 ], [ 28.53, 40.84 ], [ 28.535286691215152, 40.915775907417142 ], [ 28.18, 40.94 ], [ 28.22, 41.2 ] ] ] ] } }
]
}
